[{"OBJECT_NAME":"STARLINK-2100","OBJECT_ID":"2021-005AH","EPOCH":"2026-03-09T22:00:01.999584","MEAN_MOTION":15.12103699,"ECCENTRICITY":0.00010124,"INCLINATION":53.0532,"RA_OF_ASC_NODE":30.5302,"ARG_OF_PERICENTER":95.6888,"MEAN_ANOMALY":202.9615,"EPHEMERIS_TYPE":0,"CLASSIFICATION_TYPE":"U","NORAD_CAT_ID":47380,"ELEMENT_SET_NO":999,"REV_AT_EPOCH":577,"BSTAR":0.078295115,"MEAN_MOTION_DOT":0.014974,"MEAN_MOTION_DDOT":0},{"OBJECT_NAME":"OBJECT F","OBJECT_ID":"2026-027F","EPOCH":"2026-03-09T19:49:10.682112","MEAN_MOTION":15.18180546,"ECCENTRICITY":0.00096725,"INCLINATION":97.4922,"RA_OF_ASC_NODE":197.863,"ARG_OF_PERICENTER":203.5802,"MEAN_ANOMALY":156.499,"EPHEMERIS_TYPE":0,"CLASSIFICATION_TYPE":"U","NORAD_CAT_ID":67751,"ELEMENT_SET_NO":999,"REV_AT_EPOCH":388,"BSTAR":0.00022390931,"MEAN_MOTION_DOT":4.513e-5,"MEAN_MOTION_DDOT":0}]
